STARLINK-3726           
1 52122U 22029AL  26068.32460875 -.00001278  00000+0 -62235-4 0  9995
2 52122  53.2169  80.7606 0001334  88.5591 271.5554 15.08829473220734
DISKSAT B               
1 67220U 25305B   26068.81497770  .00012481  00000+0  82401-3 0  9990
2 67220  45.0018 250.2098 0003783 311.4052  48.6498 15.07484556 12311
